CCSDS_OMM_VERS = 2.0
CREATION_DATE  = 
ORIGINATOR     = 

OBJECT_NAME    = COSMOS 1743
OBJECT_ID      = 1986-034A
CENTER_NAME    = EARTH
REF_FRAME      = TEME
TIME_SYSTEM    = UTC
MEAN_ELEMENT_THEORY = SGP/SGP4

EPOCH          = 2025-11-18T22:00:25.500384
MEAN_MOTION    = 15.50604294
ECCENTRICITY   = .00063677
INCLINATION    = 82.5366
RA_OF_ASC_NODE = 189.3025
ARG_OF_PERICENTER = 356.0557
MEAN_ANOMALY   = 4.0643

EPHEMERIS_TYPE = 0
CLASSIFICATION_TYPE = U
NORAD_CAT_ID   = 16719
ELEMENT_SET_NO = 999
REV_AT_EPOCH   = 16304
BSTAR          = .45724017E-3
MEAN_MOTION_DOT = .2627E-3
MEAN_MOTION_DDOT = 0

CCSDS_OMM_VERS = 2.0
CREATION_DATE  = 
ORIGINATOR     = 

OBJECT_NAME    = SL-14 R/B
OBJECT_ID      = 1986-046B
CENTER_NAME    = EARTH
REF_FRAME      = TEME
TIME_SYSTEM    = UTC
MEAN_ELEMENT_THEORY = SGP/SGP4

EPOCH          = 2025-11-18T14:23:08.715552
MEAN_MOTION    = 14.85450954
ECCENTRICITY   = .00218248
INCLINATION    = 82.4827
RA_OF_ASC_NODE = 185.1111
ARG_OF_PERICENTER = 233.1158
MEAN_ANOMALY   = 126.8058

EPHEMERIS_TYPE = 0
CLASSIFICATION_TYPE = U
NORAD_CAT_ID   = 16792
ELEMENT_SET_NO = 999
REV_AT_EPOCH   = 10991
BSTAR          = .68477955E-4
MEAN_MOTION_DOT = .616E-5
MEAN_MOTION_DDOT = 0

CCSDS_OMM_VERS = 2.0
CREATION_DATE  = 
ORIGINATOR     = 

OBJECT_NAME    = SL-14 R/B
OBJECT_ID      = 1986-055B
CENTER_NAME    = EARTH
REF_FRAME      = TEME
TIME_SYSTEM    = UTC
MEAN_ELEMENT_THEORY = SGP/SGP4

EPOCH          = 2025-11-18T17:27:53.184960
MEAN_MOTION    = 14.85495761
ECCENTRICITY   = .00185947
INCLINATION    = 82.5219
RA_OF_ASC_NODE = 230.9321
ARG_OF_PERICENTER = 344.1778
MEAN_ANOMALY   = 47.9004

EPHEMERIS_TYPE = 0
CLASSIFICATION_TYPE = U
NORAD_CAT_ID   = 16882
ELEMENT_SET_NO = 999
REV_AT_EPOCH   = 10289
BSTAR          = .85505174E-4
MEAN_MOTION_DOT = .764E-5
MEAN_MOTION_DDOT = 0

CCSDS_OMM_VERS = 2.0
CREATION_DATE  = 
ORIGINATOR     = 

OBJECT_NAME    = AJISAI (EGS)
OBJECT_ID      = 1986-061A
CENTER_NAME    = EARTH
REF_FRAME      = TEME
TIME_SYSTEM    = UTC
MEAN_ELEMENT_THEORY = SGP/SGP4

EPOCH          = 2025-11-18T21:39:11.191104
MEAN_MOTION    = 12.44514130
ECCENTRICITY   = .00112105
INCLINATION    = 50.0096
RA_OF_ASC_NODE = 74.0142
ARG_OF_PERICENTER = 5.9742
MEAN_ANOMALY   = 109.8135

EPHEMERIS_TYPE = 0
CLASSIFICATION_TYPE = U
NORAD_CAT_ID   = 16908
ELEMENT_SET_NO = 999
REV_AT_EPOCH   = 45420
BSTAR          = -.11929391E-3
MEAN_MOTION_DOT = -.114E-5
MEAN_MOTION_DDOT = 0

CCSDS_OMM_VERS = 2.0
CREATION_DATE  = 
ORIGINATOR     = 

OBJECT_NAME    = COSMOS 1812
OBJECT_ID      = 1987-003A
CENTER_NAME    = EARTH
REF_FRAME      = TEME
TIME_SYSTEM    = UTC
MEAN_ELEMENT_THEORY = SGP/SGP4

EPOCH          = 2025-11-18T11:44:57.614208
MEAN_MOTION    = 15.70529171
ECCENTRICITY   = .00057205
INCLINATION    = 82.4866
RA_OF_ASC_NODE = 318.1640
ARG_OF_PERICENTER = 125.7787
MEAN_ANOMALY   = 234.4008

EPHEMERIS_TYPE = 0
CLASSIFICATION_TYPE = U
NORAD_CAT_ID   = 17295
ELEMENT_SET_NO = 999
REV_AT_EPOCH   = 12684
BSTAR          = .67358229E-3
MEAN_MOTION_DOT = .8335E-3
MEAN_MOTION_DDOT = 0

CCSDS_OMM_VERS = 2.0
CREATION_DATE  = 
ORIGINATOR     = 

OBJECT_NAME    = SL-14 R/B
OBJECT_ID      = 1987-024B
CENTER_NAME    = EARTH
REF_FRAME      = TEME
TIME_SYSTEM    = UTC
MEAN_ELEMENT_THEORY = SGP/SGP4

EPOCH          = 2025-11-18T22:37:08.685696
MEAN_MOTION    = 14.85991599
ECCENTRICITY   = .00167268
INCLINATION    = 82.5295
RA_OF_ASC_NODE = 196.8074
ARG_OF_PERICENTER = 267.7758
MEAN_ANOMALY   = 92.1543

EPHEMERIS_TYPE = 0
CLASSIFICATION_TYPE = U
NORAD_CAT_ID   = 17567
ELEMENT_SET_NO = 999
REV_AT_EPOCH   = 7168
BSTAR          = .65161443E-4
MEAN_MOTION_DOT = .594E-5
MEAN_MOTION_DDOT = 0

CCSDS_OMM_VERS = 2.0
CREATION_DATE  = 
ORIGINATOR     = 

OBJECT_NAME    = COSMOS 1833
OBJECT_ID      = 1987-027A
CENTER_NAME    = EARTH
REF_FRAME      = TEME
TIME_SYSTEM    = UTC
MEAN_ELEMENT_THEORY = SGP/SGP4

EPOCH          = 2025-11-18T22:21:57.963168
MEAN_MOTION    = 14.13018608
ECCENTRICITY   = .00215207
INCLINATION    = 70.9136
RA_OF_ASC_NODE = 198.8253
ARG_OF_PERICENTER = 5.1882
MEAN_ANOMALY   = 354.9457

EPHEMERIS_TYPE = 0
CLASSIFICATION_TYPE = U
NORAD_CAT_ID   = 17589
ELEMENT_SET_NO = 999
REV_AT_EPOCH   = 99466
BSTAR          = -.43008601E-4
MEAN_MOTION_DOT = -.129E-5
MEAN_MOTION_DDOT = 0

CCSDS_OMM_VERS = 2.0
CREATION_DATE  = 
ORIGINATOR     = 

OBJECT_NAME    = SL-16 R/B
OBJECT_ID      = 1987-027B
CENTER_NAME    = EARTH
REF_FRAME      = TEME
TIME_SYSTEM    = UTC
MEAN_ELEMENT_THEORY = SGP/SGP4

EPOCH          = 2025-11-18T22:40:17.109408
MEAN_MOTION    = 14.17147092
ECCENTRICITY   = .00072627
INCLINATION    = 71.0002
RA_OF_ASC_NODE = 149.8586
ARG_OF_PERICENTER = 284.2983
MEAN_ANOMALY   = 75.7334

EPHEMERIS_TYPE = 0
CLASSIFICATION_TYPE = U
NORAD_CAT_ID   = 17590
ELEMENT_SET_NO = 999
REV_AT_EPOCH   = 99969
BSTAR          = -.4455262E-4
MEAN_MOTION_DOT = -.138E-5
MEAN_MOTION_DDOT = 0

CCSDS_OMM_VERS = 2.0
CREATION_DATE  = 
ORIGINATOR     = 

OBJECT_NAME    = SL-14 R/B
OBJECT_ID      = 1987-038B
CENTER_NAME    = EARTH
REF_FRAME      = TEME
TIME_SYSTEM    = UTC
MEAN_ELEMENT_THEORY = SGP/SGP4

EPOCH          = 2025-11-18T16:16:58.098144
MEAN_MOTION    = 14.85228783
ECCENTRICITY   = .00196619
INCLINATION    = 82.5038
RA_OF_ASC_NODE = 41.3598
ARG_OF_PERICENTER = 167.3312
MEAN_ANOMALY   = 192.8403

EPHEMERIS_TYPE = 0
CLASSIFICATION_TYPE = U
NORAD_CAT_ID   = 17912
ELEMENT_SET_NO = 999
REV_AT_EPOCH   = 6275
BSTAR          = .79588858E-4
MEAN_MOTION_DOT = .709E-5
MEAN_MOTION_DDOT = 0

CCSDS_OMM_VERS = 2.0
CREATION_DATE  = 
ORIGINATOR     = 

OBJECT_NAME    = COSMOS 1844
OBJECT_ID      = 1987-041A
CENTER_NAME    = EARTH
REF_FRAME      = TEME
TIME_SYSTEM    = UTC
MEAN_ELEMENT_THEORY = SGP/SGP4

EPOCH          = 2025-11-18T22:37:43.181760
MEAN_MOTION    = 14.14526302
ECCENTRICITY   = .00313056
INCLINATION    = 70.8993
RA_OF_ASC_NODE = 267.7604
ARG_OF_PERICENTER = 193.4456
MEAN_ANOMALY   = 166.5835

EPHEMERIS_TYPE = 0
CLASSIFICATION_TYPE = U
NORAD_CAT_ID   = 17973
ELEMENT_SET_NO = 999
REV_AT_EPOCH   = 98792
BSTAR          = .99273566E-4
MEAN_MOTION_DOT = .143E-5
MEAN_MOTION_DDOT = 0

CCSDS_OMM_VERS = 2.0
CREATION_DATE  = 
ORIGINATOR     = 

OBJECT_NAME    = SL-14 R/B
OBJECT_ID      = 1987-055B
CENTER_NAME    = EARTH
REF_FRAME      = TEME
TIME_SYSTEM    = UTC
MEAN_ELEMENT_THEORY = SGP/SGP4

EPOCH          = 2025-11-18T19:25:23.297088
MEAN_MOTION    = 14.85485036
ECCENTRICITY   = .00212524
INCLINATION    = 82.4983
RA_OF_ASC_NODE = 93.5392
ARG_OF_PERICENTER = 23.9971
MEAN_ANOMALY   = 336.2231

EPHEMERIS_TYPE = 0
CLASSIFICATION_TYPE = U
NORAD_CAT_ID   = 18153
ELEMENT_SET_NO = 999
REV_AT_EPOCH   = 5347
BSTAR          = .80970579E-4
MEAN_MOTION_DOT = .725E-5
MEAN_MOTION_DDOT = 0

CCSDS_OMM_VERS = 2.0
CREATION_DATE  = 
ORIGINATOR     = 

OBJECT_NAME    = COSMOS 1867
OBJECT_ID      = 1987-060A
CENTER_NAME    = EARTH
REF_FRAME      = TEME
TIME_SYSTEM    = UTC
MEAN_ELEMENT_THEORY = SGP/SGP4

EPOCH          = 2025-11-18T22:04:02.510400
MEAN_MOTION    = 14.31480792
ECCENTRICITY   = .00136791
INCLINATION    = 65.0103
RA_OF_ASC_NODE = 256.9070
ARG_OF_PERICENTER = 268.7418
MEAN_ANOMALY   = 91.2099

EPHEMERIS_TYPE = 0
CLASSIFICATION_TYPE = U
NORAD_CAT_ID   = 18187
ELEMENT_SET_NO = 999
REV_AT_EPOCH   = 408
BSTAR          = .29184285E-4
MEAN_MOTION_DOT = -.23E-6
MEAN_MOTION_DDOT = 0

