COSMOS 1743             
1 16719U 86034A   25322.91696181  .00026270  00000+0  45724-3 0  9991
2 16719  82.5366 189.3025 0006367 356.0557   4.0643 15.50604294163044
SL-14 R/B               
1 16792U 86046B   25322.59940643  .00000616  00000+0  68478-4 0  9992
2 16792  82.4827 185.1111 0021824 233.1158 126.8058 14.85450954109911
SL-14 R/B               
1 16882U 86055B   25322.72769890  .00000764  00000+0  85505-4 0  9994
2 16882  82.5219 230.9321 0018594 344.1778  47.9004 14.85495761102899
AJISAI (EGS)            
1 16908U 86061A   25322.90221286 -.00000114  00000+0 -11929-3 0  9991
2 16908  50.0096  74.0142 0011210   5.9742 109.8135 12.44514130454203
COSMOS 1812             
1 17295U 87003A   25322.48955572  .00083350  00000+0  67358-3 0  9991
2 17295  82.4866 318.1640 0005720 125.7787 234.4008 15.70529171126844
SL-14 R/B               
1 17567U 87024B   25322.94246164  .00000594  00000+0  65161-4 0  9997
2 17567  82.5295 196.8074 0016726 267.7758  92.1543 14.85991599 71684
COSMOS 1833             
1 17589U 87027A   25322.93192087 -.00000129  00000+0 -43009-4 0  9990
2 17589  70.9136 198.8253 0021520   5.1882 354.9457 14.13018608994661
SL-16 R/B               
1 17590U 87027B   25322.94464247 -.00000138  00000+0 -44553-4 0  9998
2 17590  71.0002 149.8586 0007262 284.2983  75.7334 14.17147092999695
SL-14 R/B               
1 17912U 87038B   25322.67845021  .00000709  00000+0  79589-4 0  9990
2 17912  82.5038  41.3598 0019661 167.3312 192.8403 14.85228783 62759
COSMOS 1844             
1 17973U 87041A   25322.94286090  .00000143  00000+0  99274-4 0  9991
2 17973  70.8993 267.7604 0031305 193.4456 166.5835 14.14526302987928
SL-14 R/B               
1 18153U 87055B   25322.80929742  .00000725  00000+0  80971-4 0  9990
2 18153  82.4983  93.5392 0021252  23.9971 336.2231 14.85485036 53471
COSMOS 1867             
1 18187U 87060A   25322.91947350 -.00000023  00000+0  29184-4 0  9991
2 18187  65.0103 256.9070 0013679 268.7418  91.2099 14.31480792  4084
